{
    "links": {
        "self": "http://www.neowsapp.com/rest/v1/neo/3843781?api_key=iIulBulltgU6a56xZRHN4H3l9WmuAYTsLGpBGhQ2"
    },
    "id": "3843781",
    "neo_reference_id": "3843781",
    "name": "(2019 RG1)",
    "designation": "2019 RG1",
    "nasa_jpl_url": "http://ssd.jpl.nasa.gov/sbdb.cgi?sstr=3843781",
    "absolute_magnitude_h": 25.2,
    "estimated_diameter": {
        "kilometers": {
            "estimated_diameter_min": 0.0242412481,
            "estimated_diameter_max": 0.0542050786
        },
        "meters": {
            "estimated_diameter_min": 24.2412481101,
            "estimated_diameter_max": 54.2050786336
        },
        "miles": {
            "estimated_diameter_min": 0.0150628086,
            "estimated_diameter_max": 0.0336814639
        },
        "feet": {
            "estimated_diameter_min": 79.5316564495,
            "estimated_diameter_max": 177.8381901842
        }
    },
    "is_potentially_hazardous_asteroid": false,
    "close_approach_data": [
        {
            "close_approach_date": "2019-09-02",
            "close_approach_date_full": "2019-Sep-02 12:22",
            "epoch_date_close_approach": 1567426920000,
            "relative_velocity": {
                "kilometers_per_second": "14.1695823843",
                "kilometers_per_hour": "51010.4965834192",
                "miles_per_hour": "31695.9388354029"
            },
            "miss_distance": {
                "astronomical": "0.0926670416",
                "lunar": "36.0474791824",
                "kilometers": "13862792.042561392",
                "miles": "8613939.5415635296"
            },
            "orbiting_body": "Earth"
        }
    ],
    "orbital_data": {
        "orbit_id": "1",
        "orbit_determination_date": "2019-09-06 01:42:09",
        "first_observation_date": "2019-09-04",
        "last_observation_date": "2019-09-06",
        "data_arc_in_days": 2,
        "observations_used": 19,
        "orbit_uncertainty": "9",
        "minimum_orbit_intersection": ".0920752",
        "jupiter_tisserand_invariant": "2.742",
        "epoch_osculation": "2458731.5",
        "eccentricity": ".6559963595115305",
        "semi_major_axis": "3.165300419089258",
        "inclination": "21.12133630087517",
        "ascending_node_longitude": "163.6581862365213",
        "orbital_period": "2056.936239625128",
        "perihelion_distance": "1.088874867406383",
        "perihelion_argument": "164.7519164493205",
        "aphelion_distance": "5.241725970772132",
        "perihelion_time": "2458718.698884451096",
        "mean_anomaly": "2.240420246786702",
        "mean_motion": ".1750175786030243",
        "equinox": "J2000",
        "orbit_class": {
            "orbit_class_type": "AMO",
            "orbit_class_description": "Near-Earth asteroid orbits similar to that of 1221 Amor",
            "orbit_class_range": "1.017 AU < q (perihelion) < 1.3 AU"
        }
    },
    "is_sentry_object": false
}